STARLINK-5283           
1 55396U 23014F   26068.38792159 -.00000464  00000+0 -31100-4 0  9998
2 55396  69.9998  65.0837 0003143 270.7357  89.3442 14.98325734172018
SATELIOT_2              
1 60534U 24149BU  26068.71101004  .00002267  00000+0  20754-3 0  9991
2 60534  97.6894 145.4857 0001885  85.8882 274.2555 14.95943652 85098
